SPAWAR-CAL-R            
1 43776U 18099U   26067.65115975  .00003570  00000+0  25336-3 0  9990
2 43776  97.4524 111.5817 0019701 348.9052  11.1737 15.05212097396878
STARLINK-5099           
1 54009U 22125AX  26068.65990425 -.00000801  00000+0 -32273-4 0  9993
2 54009  53.2168 213.8605 0001107  78.7790 281.3326 15.08835518189464
